NORAD_CAT_ID,OBJECT_NAME,OBJECT_TYPE,EPOCH,MEAN_MOTION,ECCENTRICITY,INCLINATION,RA_OF_ASC_NODE,ARG_OF_PERICENTER,MEAN_ANOMALY,BSTAR,MEAN_MOTION_DOT,MEAN_MOTION_DDOT,TLE_LINE0,TLE_LINE1,TLE_LINE2,SEMIMAJOR_AXIS,PERIOD,APOGEE,PERIGEE,DECAYED
52563.0,STARLINK-3942,PAYLOAD,2023-01-07 21:12:41,15.08829335,0.0002141,53.2154,287.2296,39.0031,321.1115,0.00081613,0.00012721,0.0,0 STARLINK-3942,1 52563U 22051AG  23007.88381650  .00012721  00000-0  81613-3 0  9997,2 52563  53.2154 287.2296 0002141  39.0031 321.1115 15.08829335 36730,6917.913000000001,95.438,541.259,538.297,0.0
52563.0,STARLINK-3942,PAYLOAD,2023-01-08 03:34:14,15.08844535,0.0002634,53.2152,286.0378,44.6699,315.4505,0.0011051,0.00017346,0.0,0 STARLINK-3942,1 52563U 22051AG  23008.14877795  .00017346  00000-0  11051-2 0  9993,2 52563  53.2152 286.0378 0002634  44.6699 315.4505 15.08844535 36845,6917.866999999998,95.437,541.554,537.909,0.0
52563.0,STARLINK-3942,PAYLOAD,2023-01-08 11:31:09,15.08856483,0.0002292,53.2154,284.5517,42.4127,317.7042,0.0010532,0.00016521,0.0,0 STARLINK-3942,1 52563U 22051AG  23008.47997397  .00016521  00000-0  10532-2 0  9997,2 52563  53.2154 284.5517 0002292  42.4127 317.7042 15.08856483 36821,6917.83,95.437,541.281,538.109,0.0
52563.0,STARLINK-3942,PAYLOAD,2023-01-08 21:03:28,15.08867169,0.0002284,53.215,282.7675,43.425,316.6922,0.00099276,0.00015559,0.0,0 STARLINK-3942,1 52563U 22051AG  23008.87740880  .00015559  00000-0  99276-3 0  9997,2 52563  53.2150 282.7675 0002284  43.4250 316.6922 15.08867169 36885,6917.797,95.436,541.242,538.082,0.0
52563.0,STARLINK-3942,PAYLOAD,2023-01-09 11:21:55,15.08854235,0.0002179,53.2149,280.0921,39.5857,320.5294,0.00020627,2.997e-05,0.0,0 STARLINK-3942,1 52563U 22051AG  23009.47356429  .00002997  00000-0  20627-3 0  9992,2 52563  53.2149 280.0921 0002179  39.5857 320.5294 15.08854235 36976,6917.837,95.437,541.2090000000002,538.194,0.0
52563.0,STARLINK-3942,PAYLOAD,2023-01-09 20:54:15,15.08844182,0.0003296,53.2101,278.307,60.249,299.883,9.3881e-05,1.206e-05,0.0,0 STARLINK-3942,1 52563U 22051AG  23009.87101217  .00001206  00000-0  93881-4 0  9994,2 52563  53.2101 278.3070 0003296  60.2490 299.8830 15.08844182 37036,6917.868,95.437,542.013,537.452,0.0
52563.0,STARLINK-3942,PAYLOAD,2023-01-10 00:05:01,15.08842496,0.0002159,53.2146,277.7131,41.1132,319.0022,1.0149e-05,-1.27e-06,0.0,0 STARLINK-3942,1 52563U 22051AG  23010.00348691 -.00000127  00000-0  10149-4 0  9998,2 52563  53.2146 277.7131 0002159  41.1132 319.0022 15.08842496 37128,6917.873000000001,95.437,541.231,538.244,0.0
52563.0,STARLINK-3942,PAYLOAD,2023-01-10 11:12:44,15.08815152,0.000219,53.2156,275.6312,40.8163,319.2993,-0.00022586,-3.879e-05,0.0,0 STARLINK-3942,1 52563U 22051AG  23010.46717811 -.00003879  00000-0 -22586-3 0  9997,2 52563  53.2156 275.6312 0002190  40.8163 319.2993 15.08815152 37197,6917.956,95.439,541.336,538.306,0.0
52563.0,STARLINK-3942,PAYLOAD,2023-01-10 20:45:03,15.08827388,0.0002179,53.2159,273.8471,35.4327,324.681,2.8199e-05,1.6e-06,0.0,0 STARLINK-3942,1 52563U 22051AG  23010.86462150  .00000160  00000-0  28199-4 0  9999,2 52563  53.2159 273.8471 0002179  35.4327 324.6810 15.08827388 37186,6917.919,95.438,541.2909999999998,538.2769999999998,0.0
52563.0,STARLINK-3942,PAYLOAD,2023-01-10 23:55:49,15.08834141,0.0002458,53.2143,273.2544,36.7286,323.3875,0.0001144,1.533e-05,0.0,0 STARLINK-3942,1 52563U 22051AG  23010.99710211  .00001533  00000-0  11440-3 0  9992,2 52563  53.2143 273.2544 0002458  36.7286 323.3875 15.08834141 37274,6917.898,95.438,541.464,538.063,0.0
52563.0,STARLINK-3942,PAYLOAD,2023-01-11 20:35:49,15.08867314,0.0001937,53.2152,269.3845,48.3202,311.7956,0.00094567,0.00014806,0.0,0 STARLINK-3942,1 52563U 22051AG  23011.85821170  .00014806  00000-0  94567-3 0  9993,2 52563  53.2152 269.3845 0001937  48.3202 311.7956 15.08867314 37338,6917.797,95.436,541.002,538.322,0.0
52563.0,STARLINK-3942,PAYLOAD,2023-01-11 23:46:35,15.08875964,0.0002282,53.2145,268.7917,42.837,317.28,0.0011767,0.00018507,0.0,0 STARLINK-3942,1 52563U 22051AG  23011.99069077  .00018507  00000-0  11767-2 0  9990,2 52563  53.2145 268.7917 0002282  42.8370 317.2800 15.08875964 37421,6917.77,95.435,541.214,538.057,0.0
52563.0,STARLINK-3942,PAYLOAD,2023-01-12 18:51:14,15.08820002,0.0002062,53.2145,265.2243,42.1047,318.0103,0.00045367,6.936e-05,0.0,0 STARLINK-3942,1 52563U 22051AG  23012.78557924  .00006936  00000-0  45367-3 0  9998,2 52563  53.2145 265.2243 0002062  42.1047 318.0103 15.08820002 37546,6917.941999999999,95.439,541.2330000000002,538.38,0.0
52563.0,STARLINK-3942,PAYLOAD,2023-01-12 22:02:00,15.08833315,0.0001945,53.2149,264.6278,48.6773,311.4386,0.00012245,1.661e-05,0.0,0 STARLINK-3942,1 52563U 22051AG  23012.91805795  .00001661  00000-0  12245-3 0  9994,2 52563  53.2149 264.6278 0001945  48.6773 311.4386 15.08833315 37492,6917.901,95.438,541.111,538.42,0.0
52563.0,STARLINK-3942,PAYLOAD,2023-01-13 09:09:42,15.08831892,0.0001878,53.2144,262.5468,50.7041,309.4117,0.00095907,0.00015005,0.0,0 STARLINK-3942,1 52563U 22051AG  23013.38174474  .00015005  00000-0  95907-3 0  9992,2 52563  53.2144 262.5468 0001878  50.7041 309.4117 15.08831892 37567,6917.905,95.438,541.069,538.471,0.0
52563.0,STARLINK-3942,PAYLOAD,2023-01-13 17:06:38,15.08841874,0.0001878,53.2143,261.0598,52.1747,307.9415,0.0010054999999999,0.00015752,0.0,0 STARLINK-3942,1 52563U 22051AG  23013.71294527  .00015752  00000-0  10055-2 0  9990,2 52563  53.2143 261.0598 0001878  52.1747 307.9415 15.08841874 37614,6917.875,95.437,541.039,538.44,0.0
52563.0,STARLINK-3942,PAYLOAD,2023-01-14 01:03:33,15.0886223,0.0001884,53.2142,259.5728,52.996,307.1205,0.0013333,0.00021008,0.0,0 STARLINK-3942,1 52563U 22051AG  23014.04414101  .00021008  00000-0  13333-2 0  9992,2 52563  53.2142 259.5728 0001884  52.9960 307.1205 15.08862230 37733,6917.812,95.436,540.981,538.374,0.0
52563.0,STARLINK-3942,PAYLOAD,2023-01-14 15:22:02,15.08848032,0.0002524,53.214,256.8961,61.4044,298.7202,0.00093275,0.00014591,0.0,0 STARLINK-3942,1 52563U 22051AG  23014.64030424  .00014591  00000-0  93275-3 0  9993,2 52563  53.2140 256.8961 0002524  61.4044 298.7202 15.08848032 37826,6917.856,95.437,541.467,537.975,0.0
52563.0,STARLINK-3942,PAYLOAD,2023-01-15 00:54:21,15.08848711,0.0002408,53.2147,255.1112,60.2796,299.8436,0.00060276,9.32e-05,0.0,0 STARLINK-3942,1 52563U 22051AG  23015.03774407  .00009320  00000-0  60276-3 0  9992,2 52563  53.2147 255.1112 0002408  60.2796 299.8436 15.08848711 37886,6917.854,95.437,541.385,538.053,0.0
52563.0,STARLINK-3942,PAYLOAD,2023-01-15 08:51:16,15.08837417,0.000144,53.212,253.6266,70.5765,289.5382,0.00014465,2.015e-05,0.0,0 STARLINK-3942,1 52563U 22051AG  23015.36894247  .00002015  00000-0  14465-3 0  9996,2 52563  53.2120 253.6266 0001440  70.5765 289.5382 15.08837417 37938,6917.888000000001,95.438,540.749,538.757,0.0
52563.0,STARLINK-3942,PAYLOAD,2023-01-15 21:34:21,15.08849679,0.0001398,53.2138,251.2451,82.6902,277.4249,0.00031139,4.673e-05,0.0,0 STARLINK-3942,1 52563U 22051AG  23015.89885897  .00004673  00000-0  31139-3 0  9994,2 52563  53.2138 251.2451 0001398  82.6902 277.4249 15.08849679 37948,6917.851,95.437,540.683,538.749,0.0
52563.0,STARLINK-3942,PAYLOAD,2023-01-15 23:09:44,15.088532,0.0001681,53.215,250.9479,63.2575,296.8589,0.00066395,0.00010298,0.0,0 STARLINK-3942,1 52563U 22051AG  23015.96510178  .00010298  00000-0  66395-3 0  9991,2 52563  53.2150 250.9479 0001681  63.2575 296.8589 15.08853200 38021,6917.84,95.437,540.868,538.5419999999999,0.0
52563.0,STARLINK-3942,PAYLOAD,2023-01-16 08:42:03,15.08845318,0.0001649,53.2156,249.164,72.2629,287.8543,0.00026092,3.868e-05,0.0,0 STARLINK-3942,1 52563U 22051AG  23016.36254272  .00003868  00000-0  26092-3 0  9991,2 52563  53.2156 249.1640 0001649  72.2629 287.8543 15.08845318 38088,6917.8640000000005,95.437,540.87,538.5880000000001,0.0
52563.0,STARLINK-3942,PAYLOAD,2023-01-16 21:25:09,15.08832112,0.0001754,53.2139,246.7874,76.753,283.3658,3.3048e-05,2.38e-06,0.0,0 STARLINK-3942,1 52563U 22051AG  23016.89246883  .00000238  00000-0  33048-4 0  9996,2 52563  53.2139 246.7874 0001754  76.7530 283.3658 15.08832112 38163,6917.904,95.438,540.9830000000001,538.556,0.0
52563.0,STARLINK-3942,PAYLOAD,2023-01-17 08:32:51,15.08836214,0.0001395999999999,53.2148,244.7045,78.8734,281.2415,0.00014583,2.033e-05,0.0,0 STARLINK-3942,1 52563U 22051AG  23017.35615044  .00002033  00000-0  14583-3 0  9994,2 52563  53.2148 244.7045 0001396  78.8734 281.2415 15.08836214 38167,6917.892,95.438,540.7230000000001,538.7909999999999,0.0
52563.0,STARLINK-3942,PAYLOAD,2023-01-17 21:15:56,15.08838929,0.0001484,53.2144,242.325,80.7941,279.3219,0.00013717,1.896e-05,0.0,0 STARLINK-3942,1 52563U 22051AG  23017.88607172  .00001896  00000-0  13717-3 0  9999,2 52563  53.2144 242.3250 0001484  80.7941 279.3219 15.08838929 38249,6917.884,95.438,540.775,538.722,0.0
52563.0,STARLINK-3942,PAYLOAD,2023-01-18 00:26:42,15.0884106,0.0001421,53.2144,241.73,85.2366,274.8788,0.00024402,3.598e-05,0.0,0 STARLINK-3942,1 52563U 22051AG  23018.01855152  .00003598  00000-0  24402-3 0  9992,2 52563  53.2144 241.7300 0001421  85.2366 274.8788 15.08841060 38331,6917.877,95.437,540.725,538.759,0.0
52563.0,STARLINK-3942,PAYLOAD,2023-01-18 09:59:01,15.08842331,0.0001357,53.2137,239.9453,88.4416,271.6731,0.00029566,4.421e-05,0.0,0 STARLINK-3942,1 52563U 22051AG  23018.41599237  .00004421  00000-0  29566-3 0  9997,2 52563  53.2137 239.9453 0001357  88.4416 271.6731 15.08842331 38324,6917.8730000000005,95.437,540.677,538.8,0.0
52563.0,STARLINK-3942,PAYLOAD,2023-01-18 21:06:43,15.08850055,0.0001341999999999,53.2138,237.8645,84.2788,275.8357,0.00039953,6.078e-05,0.0,0 STARLINK-3942,1 52563U 22051AG  23018.87967005  .00006078  00000-0  39953-3 0  9990,2 52563  53.2138 237.8645 0001342  84.2788 275.8357 15.08850055 38394,6917.85,95.437,540.643,538.786,0.0
